{"type": "FeatureCollection", "features": [ {"type": "Feature", "properties": {"norad_id": 44542, "name": "BEIDOU-3 M24 (C46)", "group": "gnss", "lat": 22.093227961997325, "lon": -8.39567005992511, "alt_km": 21541.25734922169, "timestamp": "2025-12-27T15:27:11.434598+00:00", "meta": {"OBJECT_NAME": "BEIDOU-3 M24 (C46)", "OBJECT_ID": "2019-061A", "EPOCH": "2025-12-25T19:20:31.720416", "MEAN_MOTION": 1.86229328, "ECCENTRICITY": 0.00095592, "INCLINATION": 54.4007, "RA_OF_ASC_NODE": 188.5751, "ARG_OF_PERICENTER": 26.2339, "MEAN_ANOMALY": 333.8493, "EPHEMERIS_TYPE": 0, "CLASSIFICATION_TYPE": "U", "NORAD_CAT_ID": 44542, "ELEMENT_SET_NO": 999, "REV_AT_EPOCH": 4256, "BSTAR": 0, "MEAN_MOTION_DOT": 1.16e-06, "MEAN_MOTION_DDOT": 0}, "tle": {"line1": "1 44542U 19061A   25359.80592269  .00000116  00000+0  00000+0 0  9997", "line2": "2 44542  54.4007 188.5751 0009559  26.2339 333.8493  1.86229328 42560"}}, "geometry": {"type": "Point", "coordinates": [-8.39567005992511, 22.093227961997325]}}, {"type": "Feature", "properties": {"norad_id": 44543, "name": "BEIDOU-3 M23 (C45)", "group": "gnss", "lat": 47.46291745193829, "lon": -120.15739875790302, "alt_km": 21509.80667469324, "timestamp": "2025-12-27T15:27:11.434611+00:00", "meta": {"OBJECT_NAME": "BEIDOU-3 M23 (C45)", "OBJECT_ID": "2019-061B", "EPOCH": "2025-12-26T11:37:48.857664", "MEAN_MOTION": 1.86227559, "ECCENTRICITY": 0.0005976, "INCLINATION": 54.3995, "RA_OF_ASC_NODE": 188.5205, "ARG_OF_PERICENTER": 25.6827, "MEAN_ANOMALY": 342.0898, "EPHEMERIS_TYPE": 0, "CLASSIFICATION_TYPE": "U", "NORAD_CAT_ID": 44543, "ELEMENT_SET_NO": 999, "REV_AT_EPOCH": 4258, "BSTAR": 0, "MEAN_MOTION_DOT": 1.22e-06, "MEAN_MOTION_DDOT": 0}, "tle": {"line1": "1 44543U 19061B   25360.48459326  .00000122  00000+0  00000+0 0  9997", "line2": "2 44543  54.3995 188.5205 0005976  25.6827 342.0898  1.86227559 42581"}}, "geometry": {"type": "Point", "coordinates": [-120.15739875790302, 47.46291745193829]}}, {"type": "Feature", "properties": {"norad_id": 44624, "name": "EUTELSAT 5 WEST B (EGNOS/PRN 121)", "group": "gnss", "lat": -0.038390482302510395, "lon": -36.811483479927745, "alt_km": 35777.05853248244, "timestamp": "2025-12-27T15:27:11.434623+00:00", "meta": {"OBJECT_NAME": "EUTELSAT 5 WEST B (EGNOS/PRN 121)", "OBJECT_ID": "2019-067A", "EPOCH": "2025-12-27T04:42:38.441664", "MEAN_MOTION": 1.00271215, "ECCENTRICITY": 0.00032747, "INCLINATION": 0.0618, "RA_OF_ASC_NODE": 348.7107, "ARG_OF_PERICENTER": 285.9376, "MEAN_ANOMALY": 246.9417, "EPHEMERIS_TYPE": 0, "CLASSIFICATION_TYPE": "U", "NORAD_CAT_ID": 44624, "ELEMENT_SET_NO": 999, "REV_AT_EPOCH": 2271, "BSTAR": 0, "MEAN_MOTION_DOT": -2e-07, "MEAN_MOTION_DDOT": 0}, "tle": {"line1": "1 44624U 19067A   25361.19627826 -.00000020  00000+0  00000+0 0  9992", "line2": "2 44624   0.0618 348.7107 0003274 285.9376 246.9417  1.00271215 22717"}}, "geometry": {"type": "Point", "coordinates": [-36.811483479927745, -0.038390482302510395]}}, {"type": "Feature", "properties": {"norad_id": 44793, "name": "BEIDOU-3 M22 (C44)", "group": "gnss", "lat": -52.81432727733077, "lon": -161.59964433064226, "alt_km": 21543.220093227686, "timestamp": "2025-12-27T15:27:11.434635+00:00", "meta": {"OBJECT_NAME": "BEIDOU-3 M22 (C44)", "OBJECT_ID": "2019-078A", "EPOCH": "2025-12-26T04:23:18.195072", "MEAN_MOTION": 1.86232141, "ECCENTRICITY": 0.0006121, "INCLINATION": 54.096, "RA_OF_ASC_NODE": 305.9151, "ARG_OF_PERICENTER": 23.7349, "MEAN_ANOMALY": 336.3032, "EPHEMERIS_TYPE": 0, "CLASSIFICATION_TYPE": "U", "NORAD_CAT_ID": 44793, "ELEMENT_SET_NO": 999, "REV_AT_EPOCH": 4142, "BSTAR": 0, "MEAN_MOTION_DOT": -5.6e-07, "MEAN_MOTION_DDOT": 0}, "tle": {"line1": "1 44793U 19078A   25360.18284948 -.00000056  00000+0  00000+0 0  9992", "line2": "2 44793  54.0960 305.9151 0006121  23.7349 336.3032  1.86232141 41424"}}, "geometry": {"type": "Point", "coordinates": [-161.59964433064226, -52.81432727733077]}}, {"type": "Feature", "properties": {"norad_id": 44794, "name": "BEIDOU-3 M21 (C43)", "group": "gnss", "lat": 10.407107394258741, "lon": 118.16654027881506, "alt_km": 21538.067206304342, "timestamp": "2025-12-27T15:27:11.434646+00:00", "meta": {"OBJECT_NAME": "BEIDOU-3 M21 (C43)", "OBJECT_ID": "2019-078B", "EPOCH": "2025-12-25T05:55:32.884896", "MEAN_MOTION": 1.86227898, "ECCENTRICITY": 0.0004304, "INCLINATION": 54.0703, "RA_OF_ASC_NODE": 305.9129, "ARG_OF_PERICENTER": 12.6939, "MEAN_ANOMALY": 347.3266, "EPHEMERIS_TYPE": 0, "CLASSIFICATION_TYPE": "U", "NORAD_CAT_ID": 44794, "ELEMENT_SET_NO": 999, "REV_AT_EPOCH": 4141, "BSTAR": 0, "MEAN_MOTION_DOT": -5.3e-07, "MEAN_MOTION_DDOT": 0}, "tle": {"line1": "1 44794U 19078B   25359.24690839 -.00000053  00000+0  00000+0 0  9995", "line2": "2 44794  54.0703 305.9129 0004304  12.6939 347.3266  1.86227898 41411"}}, "geometry": {"type": "Point", "coordinates": [118.16654027881506, 10.407107394258741]}}, {"type": "Feature", "properties": {"norad_id": 44850, "name": "COSMOS 2544 (759)", "group": "gnss", "lat": -63.85619211998193, "lon": 11.171295417723051, "alt_km": 19104.126022117252, "timestamp": "2025-12-27T15:27:11.434658+00:00", "meta": {"OBJECT_NAME": "COSMOS 2544 (759)", "OBJECT_ID": "2019-088A", "EPOCH": "2025-12-27T06:42:41.595840", "MEAN_MOTION": 2.13102058, "ECCENTRICITY": 0.00144395, "INCLINATION": 65.467, "RA_OF_ASC_NODE": 79.4725, "ARG_OF_PERICENTER": 250.8166, "MEAN_ANOMALY": 109.0715, "EPHEMERIS_TYPE": 0, "CLASSIFICATION_TYPE": "U", "NORAD_CAT_ID": 44850, "ELEMENT_SET_NO": 999, "REV_AT_EPOCH": 4705, "BSTAR": 0, "MEAN_MOTION_DOT": -1.2e-07, "MEAN_MOTION_DDOT": 0}, "tle": {"line1": "1 44850U 19088A   25361.27964810 -.00000012  00000+0  00000+0 0  9993", "line2": "2 44850  65.4670  79.4725 0014439 250.8166 109.0715  2.13102058 47055"}}, "geometry": {"type": "Point", "coordinates": [11.171295417723051, -63.85619211998193]}}, {"type": "Feature", "properties": {"norad_id": 44864, "name": "BEIDOU-3 M19 (C41)", "group": "gnss", "lat": 2.5787382479908523, "lon": 70.19615000678172, "alt_km": 21516.94355719027, "timestamp": "2025-12-27T15:27:11.434669+00:00", "meta": {"OBJECT_NAME": "BEIDOU-3 M19 (C41)", "OBJECT_ID": "2019-090A", "EPOCH": "2025-12-27T02:26:46.358016", "MEAN_MOTION": 1.86231443, "ECCENTRICITY": 0.0018509, "INCLINATION": 56.4046, "RA_OF_ASC_NODE": 68.4857, "ARG_OF_PERICENTER": 285.4212, "MEAN_ANOMALY": 74.1614, "EPHEMERIS_TYPE": 0, "CLASSIFICATION_TYPE": "U", "NORAD_CAT_ID": 44864, "ELEMENT_SET_NO": 999, "REV_AT_EPOCH": 4102, "BSTAR": 0, "MEAN_MOTION_DOT": -3.5e-07, "MEAN_MOTION_DDOT": 0}, "tle": {"line1": "1 44864U 19090A   25361.10192544 -.00000035  00000+0  00000+0 0  9995", "line2": "2 44864  56.4046  68.4857 0018509 285.4212  74.1614  1.86231443 41020"}}, "geometry": {"type": "Point", "coordinates": [70.19615000678172, 2.5787382479908523]}}, {"type": "Feature", "properties": {"norad_id": 44865, "name": "BEIDOU-3 M20 (C42)", "group": "gnss", "lat": 56.332107571326354, "lon": 163.21942602396444, "alt_km": 21561.02646857514, "timestamp": "2025-12-27T15:27:11.434680+00:00", "meta": {"OBJECT_NAME": "BEIDOU-3 M20 (C42)", "OBJECT_ID": "2019-090B", "EPOCH": "2025-12-26T13:03:31.682016", "MEAN_MOTION": 1.86231463, "ECCENTRICITY": 0.0015612, "INCLINATION": 56.4057, "RA_OF_ASC_NODE": 68.5385, "ARG_OF_PERICENTER": 297.4355, "MEAN_ANOMALY": 137.7791, "EPHEMERIS_TYPE": 0, "CLASSIFICATION_TYPE": "U", "NORAD_CAT_ID": 44865, "ELEMENT_SET_NO": 999, "REV_AT_EPOCH": 4100, "BSTAR": 0, "MEAN_MOTION_DOT": -3.2e-07, "MEAN_MOTION_DDOT": 0}, "tle": {"line1": "1 44865U 19090B   25360.54411669 -.00000032  00000+0  00000+0 0  9992", "line2": "2 44865  56.4057  68.5385 0015612 297.4355 137.7791  1.86231463 41005"}}, "geometry": {"type": "Point", "coordinates": [163.21942602396444, 56.332107571326354]}}, {"type": "Feature", "properties": {"norad_id": 45344, "name": "BEIDOU-3 G2 (C60)", "group": "gnss", "lat": 0.1893898995707514, "lon": 48.22328867579103, "alt_km": 35791.640699550546, "timestamp": "2025-12-27T15:27:11.434697+00:00", "meta": {"OBJECT_NAME": "BEIDOU-3 G2 (C60)", "OBJECT_ID": "2020-017A", "EPOCH": "2025-12-27T04:51:38.509056", "MEAN_MOTION": 1.00271779, "ECCENTRICITY": 0.00021861, "INCLINATION": 2.5224, "RA_OF_ASC_NODE": 44.1664, "ARG_OF_PERICENTER": 237.1278, "MEAN_ANOMALY": 327.5982, "EPHEMERIS_TYPE": 0, "CLASSIFICATION_TYPE": "U", "NORAD_CAT_ID": 45344, "ELEMENT_SET_NO": 999, "REV_AT_EPOCH": 2153, "BSTAR": 0, "MEAN_MOTION_DOT": -1.19e-06, "MEAN_MOTION_DDOT": 0}, "tle": {"line1": "1 45344U 20017A   25361.20252904 -.00000119  00000+0  00000+0 0  9991", "line2": "2 45344   2.5224  44.1664 0002186 237.1278 327.5982  1.00271779 21530"}}, "geometry": {"type": "Point", "coordinates": [48.22328867579103, 0.1893898995707514]}}, {"type": "Feature", "properties": {"norad_id": 45358, "name": "COSMOS 2545 (760)", "group": "gnss", "lat": 44.43805062659371, "lon": 110.49687142750865, "alt_km": 19139.816046401156, "timestamp": "2025-12-27T15:27:11.434712+00:00", "meta": {"OBJECT_NAME": "COSMOS 2545 (760)", "OBJECT_ID": "2020-018A", "EPOCH": "2025-12-27T00:08:46.380768", "MEAN_MOTION": 2.13102633, "ECCENTRICITY": 0.00112617, "INCLINATION": 64.4611, "RA_OF_ASC_NODE": 318.4699, "ARG_OF_PERICENTER": 250.7863, "MEAN_ANOMALY": 109.0965, "EPHEMERIS_TYPE": 0, "CLASSIFICATION_TYPE": "U", "NORAD_CAT_ID": 45358, "ELEMENT_SET_NO": 999, "REV_AT_EPOCH": 4499, "BSTAR": 0, "MEAN_MOTION_DOT": -3.8e-07, "MEAN_MOTION_DDOT": 0}, "tle": {"line1": "1 45358U 20018A   25361.00609237 -.00000038  00000+0  00000+0 0  9990", "line2": "2 45358  64.4611 318.4699 0011261 250.7863 109.0965  2.13102633 44998"}}, "geometry": {"type": "Point", "coordinates": [110.49687142750865, 44.43805062659371]}}]}